OBJECT_NAME,OBJECT_ID,EPOCH,MEAN_MOTION,ECCENTRICITY,INCLINATION,RA_OF_ASC_NODE,ARG_OF_PERICENTER,MEAN_ANOMALY,EPHEMERIS_TYPE,CLASSIFICATION_TYPE,NORAD_CAT_ID,ELEMENT_SET_NO,REV_AT_EPOCH,BSTAR,MEAN_MOTION_DOT,MEAN_MOTION_DDOT
TIANLIAN 2-03,2022-078A,2026-03-01T08:50:38.692032,1.00271949,.0003377,0.3970,72.8438,251.4463,338.1146,0,U,53100,999,1346,0,.54E-6,0
SBIRS GEO-6 (USA 336),2022-092A,2026-03-01T10:56:38.830272,1.00271059,.0002368,3.4427,315.7906,15.7183,130.8757,0,U,53355,999,1315,0,-.31E-5,0
EUTELSAT KONNECT VHTS,2022-110A,2026-03-01T09:01:55.711200,1.00270182,.0002955,0.0590,102.1812,209.0855,346.0480,0,U,53765,999,575,0,-.2E-7,0
ZHONGXING-1E,2022-112A,2026-03-01T09:24:23.557248,1.00269695,.0003591,0.0129,122.7513,177.2406,81.6545,0,U,53813,999,1276,0,-.167E-5,0
SES-20,2022-123A,2026-03-01T09:33:37.997280,1.00270289,.0001279,0.0136,106.1571,317.8977,135.4192,0,U,53960,999,1245,0,-.119E-5,0
SES-21,2022-123B,2026-03-01T12:27:02.772576,1.00270681,.0000996,0.0274,62.4328,281.7864,230.8472,0,U,53961,999,613,0,.51E-6,0
GALAXY 33 (G-33),2022-128A,2026-03-01T08:25:19.594272,1.00270270,.0001965,0.0207,89.5662,243.1959,179.6830,0,U,54026,999,1266,0,.61E-6,0
GALAXY 34 (G-34),2022-128B,2026-03-01T08:23:20.433120,1.00271938,.0001391,0.0227,105.6029,236.1204,174.2470,0,U,54027,999,1283,0,.41E-6,0
ANGOSAT 2,2022-131A,2026-03-01T05:44:38.543136,1.00268935,.00003457,0.0111,165.7183,296.7661,165.6835,0,U,54033,999,1239,0,.117E-5,0
EUTELSAT HOTBIRD 13F,2022-134A,2026-03-01T08:50:38.692032,1.00271526,.000215,0.0599,295.8457,59.7037,309.2542,0,U,54048,999,1229,0,.68E-6,0
LDPE-2,2022-144A,2026-03-01T09:29:45.543264,1.00558985,.0000735,5.3810,64.3297,215.4730,121.9487,0,U,54219,999,1075,0,-.356E-5,0
EUTELSAT HOTBIRD 13G,2022-146A,2026-03-01T08:50:38.692032,1.00271893,.0001864,0.0505,235.3822,311.3288,118.1003,0,U,54225,999,638,0,.69E-6,0
ZHONGXING-19,2022-148A,2026-02-26T20:10:46.066944,1.00271644,.00076511,0.0192,125.7800,129.3320,7.6307,0,U,54230,999,1227,0,-.93E-6,0
GALAXY 31 (G-31),2022-153A,2026-03-01T12:21:28.370016,1.00271763,.0001546,0.0213,119.3371,224.8276,239.4929,0,U,54243,999,605,0,-.5E-7,0
GALAXY 32 (G-32),2022-153B,2026-03-01T05:09:55.454688,1.00269681,.0003055,0.0199,134.5633,214.7397,156.2099,0,U,54244,999,1206,0,0,0
EUTELSAT 10B,2022-157A,2026-03-01T08:50:38.692032,1.00267244,.0000941,0.0585,101.4633,35.9894,164.3219,0,U,54259,999,1194,0,.49E-6,0
GALAXY 35 (G-35),2022-170A,2026-03-01T10:17:18.483360,1.00271457,.0002103,0.0171,121.6112,214.6678,244.1640,0,U,54741,999,1181,0,-.18E-5,0
GALAXY 36 (G-36),2022-170B,2026-03-01T10:23:17.801952,1.00270978,.0001882,0.0126,156.8334,234.1793,195.0232,0,U,54742,999,1169,0,-.203E-5,0
METEOSAT-12 (MTG-I1),2022-170C,2026-03-01T07:18:28.131264,1.00274095,.0001988,0.7416,28.6879,278.6270,321.0943,0,U,54743,999,1189,0,-.25E-6,0
SHIJIAN-23 (SJ-23),2023-002A,2026-03-01T18:42:20.453760,1.00489262,.0005871,3.4416,79.6889,259.3711,228.5460,0,U,55131,999,1143,0,-.342E-5,0
APSTAR-6E,2023-005A,2026-03-01T12:01:28.369920,1.00272604,.0001702,0.0610,256.4169,37.7647,179.4674,0,U,55239,999,1761,0,-.336E-5,0
USA 342,2023-008A,2026-02-28T12:35:41.157024,1.00275491,.0000335,0.0119,123.7851,334.6722,272.6049,0,U,55263,999,1142,0,.121E-5,0
LDPE-3A,2023-008B,2026-03-01T04:15:38.598048,0.99997914,.00000898,2.0665,83.0794,113.8138,253.4277,0,U,55264,999,1074,0,.82E-6,0
ELEKTRO-L 4,2023-016A,2026-03-01T02:21:09.692640,1.00267670,.000207,0.1091,291.0529,354.3162,74.5702,0,U,55506,999,1125,0,-.78E-6,0
AMAZONAS NEXUS,2023-017A,2026-03-01T07:01:07.292928,1.00269998,.0004683,0.0399,44.9699,315.5154,202.8701,0,U,55508,999,596,0,-.301E-5,0
ZHONGXING-26,2023-023A,2026-03-01T11:19:35.012064,1.00270209,.0003383,0.0638,73.8220,319.4328,61.0070,0,U,55686,999,1115,0,-.372E-5,0
LUCH-5X (OLYMP-K 2),2023-031A,2026-03-01T18:07:15.034368,1.00272925,.0001672,0.0263,90.6628,123.7666,278.8944,0,U,55841,999,1086,0,.15E-6,0
GAOFEN-13 02,2023-036A,2026-03-01T10:42:38.937600,1.00268561,.0005148,1.0338,347.3841,333.5447,147.1290,0,U,55912,999,1101,0,-.237E-5,0
SES-18,2023-038A,2026-03-01T10:14:26.257920,1.00265374,.0002456,0.0668,273.2835,23.2371,273.1860,0,U,55970,999,1102,0,-.118E-5,0
SES-19,2023-038B,2026-03-01T12:29:14.472960,1.00271073,.0001788,0.0592,283.7981,46.9124,240.9938,0,U,55971,999,1100,0,.69E-6,0
INTELSAT 40E (IS-40E),2023-052A,2026-03-01T07:56:38.700672,1.00265658,.0000786,0.0108,160.0019,196.2460,191.0199,0,U,56174,999,1074,0,-.192E-5,0
VIASAT-3 F1,2023-060A,2026-03-01T03:46:38.623008,1.00270278,.0000509,0.0194,152.2932,270.4497,63.9230,0,U,56370,999,1035,0,0,0
